2026-134H               
1 69545U 26134H   26177.73213868  .00005590  00000+0  34958-3 0  9996
2 69545  97.7038 247.8823 0014443 243.9798 115.9944 15.09757579  1736
STARLINK-37880          
1 69546U 26135A   26177.66670139 -.00062704  00000+0 -32829-3 0  9995
2 69546  97.2831 205.2097 0001504  92.2184  13.8169 15.80860090  2831
STARLINK-37881          
1 69547U 26135B   26177.66670139  .00023264  00000+0  12179-3 0  9998
2 69547  97.2830 205.2114 0001272  98.9779  10.2943 15.80830007  2832
STARLINK-37265          
1 69548U 26135C   26177.66670139  .00039021  00000+0  20374-3 0  9993
2 69548  97.2833 205.2126 0000796 122.6476 350.3525 15.80795350  2833
STARLINK-37871          
1 69549U 26135D   26177.66670139 -.00020062  00000+0 -10406-3 0  9996
2 69549  97.2833 205.2151 0001341  88.2867  30.1081 15.80854227  2839
STARLINK-37865          
1 69550U 26135E   26177.66670139 -.00024130  00000+0 -12536-3 0  9994
2 69550  97.2835 205.2181 0001112  94.0194  32.5943 15.80854556  2838
STARLINK-37862          
1 69551U 26135F   26177.66670139  .00024648  00000+0  12900-3 0  9992
2 69551  97.2835 205.2252 0000842 108.2005  34.3559 15.80825871  2837
STARLINK-37861          
1 69552U 26135G   26177.66670139  .00009976  00000+0  52722-4 0  9997
2 69552  97.2838 205.2301 0001439 103.8303  49.5525 15.80832724  2837
STARLINK-37859          
1 69553U 26135H   26177.66670139  .00014854  00000+0  78091-4 0  9996
2 69553  97.2840 205.2321 0001329 105.1835  53.5215 15.80834237  2838
STARLINK-37860          
1 69554U 26135J   26177.66670139 -.00024895  00000+0 -12942-3 0  9997
2 69554  97.2839 205.2324 0001400  95.0702  65.1987 15.80845843  2830
STARLINK-37858          
1 69555U 26135K   26177.66670139  .00008559  00000+0  45349-4 0  9993
2 69555  97.2839 205.2378 0000937 109.1712  61.4238 15.80832003  2834
STARLINK-37927          
1 69556U 26135L   26177.66670139  .00009696  00000+0  51267-4 0  9993
2 69556  97.2839 205.2383 0000884 111.7566  60.2074 15.80832194  2834
STARLINK-37929          
1 69557U 26135M   26177.66670139 -.00012146  00000+0 -62677-4 0  9997
2 69557  97.2843 205.2397 0001503  97.5762  79.1357 15.80843923  2838
STARLINK-37954          
1 69558U 26135N   26177.66670139  .00059997  00000+0  31182-3 0  9997
2 69558  97.2844 205.2433 0000777  82.2184 101.4310 15.80816307  2836
STARLINK-37958          
1 69559U 26135P   26177.66670139 -.00054384  00000+0 -28429-3 0  9995
2 69559  97.2844 205.2489 0000924  94.9318 102.7155 15.80866988  2832
STARLINK-37950          
1 69560U 26135Q   26177.66670139 -.00058691  00000+0 -30696-3 0  9991
2 69560  97.2845 205.2488 0001176  98.2423 100.2299 15.80871028  2831
STARLINK-37952          
1 69561U 26135R   26177.66670139 -.00018679  00000+0 -96854-4 0  9993
2 69561  97.2844 205.2522 0001361  99.3117 107.1263 15.80845253  2836
STARLINK-37935          
1 69562U 26135S   26177.66670139 -.00038567  00000+0 -20112-3 0  9995
2 69562  97.2842 205.2545 0000785  92.3260 118.4989 15.80857748  2833
STARLINK-37936          
1 69563U 26135T   26177.66670139 -.00049743  00000+0 -25987-3 0  9999
2 69563  97.2842 205.2712 0001261  90.8102 159.9274 15.80862950  2836
STARLINK-37932          
1 69564U 26135U   26177.66670139 -.00054851  00000+0 -28679-3 0  9997
2 69564  97.2841 205.2719 0001307 102.6781 150.0922 15.80863999  2835
STARLINK-37916          
1 69565U 26135V   26177.66670139 -.00042920  00000+0 -22401-3 0  9999
2 69565  97.2841 205.2738 0001179  91.6150 164.2726 15.80857926  2833
STARLINK-37909          
1 69566U 26135W   26177.66670139 -.00036598  00000+0 -19084-3 0  9997
2 69566  97.2834 205.2885 0001181  98.9839 192.8089 15.80848886  2841
STARLINK-37934          
1 69567U 26135X   26177.66670139 -.00037087  00000+0 -19331-3 0  9997
2 69567  97.2836 205.2817 0001265  79.8512 193.7053 15.80860511  2837
STARLINK-37938          
1 69568U 26135Y   26177.66670139 -.00030172  00000+0 -15712-3 0  9995
2 69568  97.2838 205.2875 0000812  97.2491 190.2155 15.80845414  2842
STARLINK-37924          
1 69569U 26135Z   26177.66670139 -.00056356  00000+0 -29470-3 0  9994
2 69569  97.2835 205.2938 0001162  93.8708 209.2799 15.80866079  2847
SHIJIAN-31 (SJ-31)      
1 69570U 26136A   26177.33848884  .00000196  00000+0  00000+0 0  9998
2 69570  63.4771 355.1350 6941083 171.7679 212.4551  1.92222972   262
GUOWANG OBJECT A        
1 69572U 26137A   26175.62604037  .00000074  00000+0  17259-3 0  9994
2 69572  50.0003 225.7306 0012385 251.0733 108.8824 13.91753886  1052
GUOWANG OBJECT B        
1 69573U 26137B   26176.41574519  .00000028  00000+0  14028-3 0  9994
2 69573  49.9937 222.5656 0011712 251.5364 108.4262 13.90147741  1178
GUOWANG OBJECT C        
1 69574U 26137C   26175.33791578  .00000033  00000+0  14002-3 0  9999
2 69574  49.9965 226.8623 0011755 249.2244 110.7396 13.91926960  1026
