OBJECT_NAME,OBJECT_ID,EPOCH,MEAN_MOTION,ECCENTRICITY,INCLINATION,RA_OF_ASC_NODE,ARG_OF_PERICENTER,MEAN_ANOMALY,EPHEMERIS_TYPE,CLASSIFICATION_TYPE,NORAD_CAT_ID,ELEMENT_SET_NO,REV_AT_EPOCH,BSTAR,MEAN_MOTION_DOT,MEAN_MOTION_DDOT
2026-134H,2026-134H,2026-06-26T17:34:16.781952,15.09757579,.0014443,97.7038,247.8823,243.9798,115.9944,0,U,69545,999,173,.34958E-3,.559E-4,0
STARLINK-37880,2026-135A,2026-06-26T16:00:03.000096,15.80860090,.0001504,97.2831,205.2097,92.2184,13.8169,0,U,69546,999,283,-.32829E-3,-.62704E-3,0
STARLINK-37881,2026-135B,2026-06-26T16:00:03.000096,15.80830007,.0001272,97.2830,205.2114,98.9779,10.2943,0,U,69547,999,283,.12179E-3,.23264E-3,0
STARLINK-37265,2026-135C,2026-06-26T16:00:03.000096,15.80795350,.0000796,97.2833,205.2126,122.6476,350.3525,0,U,69548,999,283,.20374E-3,.39021E-3,0
STARLINK-37871,2026-135D,2026-06-26T16:00:03.000096,15.80854227,.0001341,97.2833,205.2151,88.2867,30.1081,0,U,69549,999,283,-.10406E-3,-.20062E-3,0
STARLINK-37865,2026-135E,2026-06-26T16:00:03.000096,15.80854556,.0001112,97.2835,205.2181,94.0194,32.5943,0,U,69550,999,283,-.12536E-3,-.2413E-3,0
STARLINK-37862,2026-135F,2026-06-26T16:00:03.000096,15.80825871,.0000842,97.2835,205.2252,108.2005,34.3559,0,U,69551,999,283,.129E-3,.24648E-3,0
STARLINK-37861,2026-135G,2026-06-26T16:00:03.000096,15.80832724,.0001439,97.2838,205.2301,103.8303,49.5525,0,U,69552,999,283,.52722E-4,.9976E-4,0
STARLINK-37859,2026-135H,2026-06-26T16:00:03.000096,15.80834237,.0001329,97.2840,205.2321,105.1835,53.5215,0,U,69553,999,283,.78091E-4,.14854E-3,0
STARLINK-37860,2026-135J,2026-06-26T16:00:03.000096,15.80845843,.00014,97.2839,205.2324,95.0702,65.1987,0,U,69554,999,283,-.12942E-3,-.24895E-3,0
STARLINK-37858,2026-135K,2026-06-26T16:00:03.000096,15.80832003,.0000937,97.2839,205.2378,109.1712,61.4238,0,U,69555,999,283,.45349E-4,.8559E-4,0
STARLINK-37927,2026-135L,2026-06-26T16:00:03.000096,15.80832194,.0000884,97.2839,205.2383,111.7566,60.2074,0,U,69556,999,283,.51267E-4,.9696E-4,0
STARLINK-37929,2026-135M,2026-06-26T16:00:03.000096,15.80843923,.0001503,97.2843,205.2397,97.5762,79.1357,0,U,69557,999,283,-.62677E-4,-.12146E-3,0
STARLINK-37954,2026-135N,2026-06-26T16:00:03.000096,15.80816307,.0000777,97.2844,205.2433,82.2184,101.4310,0,U,69558,999,283,.31182E-3,.59997E-3,0
STARLINK-37958,2026-135P,2026-06-26T16:00:03.000096,15.80866988,.0000924,97.2844,205.2489,94.9318,102.7155,0,U,69559,999,283,-.28429E-3,-.54384E-3,0
STARLINK-37950,2026-135Q,2026-06-26T16:00:03.000096,15.80871028,.0001176,97.2845,205.2488,98.2423,100.2299,0,U,69560,999,283,-.30696E-3,-.58691E-3,0
STARLINK-37952,2026-135R,2026-06-26T16:00:03.000096,15.80845253,.0001361,97.2844,205.2522,99.3117,107.1263,0,U,69561,999,283,-.96854E-4,-.18679E-3,0
STARLINK-37935,2026-135S,2026-06-26T16:00:03.000096,15.80857748,.0000785,97.2842,205.2545,92.3260,118.4989,0,U,69562,999,283,-.20112E-3,-.38567E-3,0
STARLINK-37936,2026-135T,2026-06-26T16:00:03.000096,15.80862950,.0001261,97.2842,205.2712,90.8102,159.9274,0,U,69563,999,283,-.25987E-3,-.49743E-3,0
STARLINK-37932,2026-135U,2026-06-26T16:00:03.000096,15.80863999,.0001307,97.2841,205.2719,102.6781,150.0922,0,U,69564,999,283,-.28679E-3,-.54851E-3,0
STARLINK-37916,2026-135V,2026-06-26T16:00:03.000096,15.80857926,.0001179,97.2841,205.2738,91.6150,164.2726,0,U,69565,999,283,-.22401E-3,-.4292E-3,0
STARLINK-37909,2026-135W,2026-06-26T16:00:03.000096,15.80848886,.0001181,97.2834,205.2885,98.9839,192.8089,0,U,69566,999,284,-.19084E-3,-.36598E-3,0
STARLINK-37934,2026-135X,2026-06-26T16:00:03.000096,15.80860511,.0001265,97.2836,205.2817,79.8512,193.7053,0,U,69567,999,283,-.19331E-3,-.37087E-3,0
STARLINK-37938,2026-135Y,2026-06-26T16:00:03.000096,15.80845414,.0000812,97.2838,205.2875,97.2491,190.2155,0,U,69568,999,284,-.15712E-3,-.30172E-3,0
STARLINK-37924,2026-135Z,2026-06-26T16:00:03.000096,15.80866079,.0001162,97.2835,205.2938,93.8708,209.2799,0,U,69569,999,284,-.2947E-3,-.56356E-3,0
SHIJIAN-31 (SJ-31),2026-136A,2026-06-26T08:07:25.435776,1.92222972,.6941083,63.4771,355.1350,171.7679,212.4551,0,U,69570,999,26,0,.196E-5,0
GUOWANG OBJECT A,2026-137A,2026-06-24T15:01:29.887968,13.91753886,.0012385,50.0003,225.7306,251.0733,108.8824,0,U,69572,999,105,.17258927E-3,.74E-6,0
GUOWANG OBJECT B,2026-137B,2026-06-25T09:58:40.384416,13.90147741,.0011712,49.9937,222.5656,251.5364,108.4262,0,U,69573,999,117,.14028E-3,.28E-6,0
GUOWANG OBJECT C,2026-137C,2026-06-24T08:06:35.923392,13.91926960,.00117555,49.9965,226.8623,249.2244,110.7396,0,U,69574,999,102,.14001882E-3,.33E-6,0
